{"type": "FeatureCollection", "features": [ {"type": "Feature", "properties": {"norad_id": 67141, "name": "KUIPER-00187", "group": "last-30-days", "lat": 26.103895954571023, "lon": -139.62735205691155, "alt_km": 452.6389273811774, "timestamp": "2025-12-25T14:48:23.573439+00:00", "meta": {"OBJECT_NAME": "KUIPER-00187", "OBJECT_ID": "2025-301J", "EPOCH": "2025-12-25T06:00:04.000320", "MEAN_MOTION": 15.35791385, "ECCENTRICITY": 0.00045975, "INCLINATION": 51.871, "RA_OF_ASC_NODE": 64.7787, "ARG_OF_PERICENTER": 114.9262, "MEAN_ANOMALY": 161.1438, "EPHEMERIS_TYPE": 0, "CLASSIFICATION_TYPE": "U", "NORAD_CAT_ID": 67141, "ELEMENT_SET_NO": 999, "REV_AT_EPOCH": 207, "BSTAR": 0.00064870286, "MEAN_MOTION_DOT": 0.00022625, "MEAN_MOTION_DDOT": 0}, "tle": {"line1": "1 67141U 25301J   25359.25004630  .00022625  00000+0  64870-3 0  9998", "line2": "2 67141  51.8710  64.7787 0004597 114.9262 161.1438 15.35791385  2072"}}, "geometry": {"type": "Point", "coordinates": [-139.62735205691155, 26.103895954571023]}}, {"type": "Feature", "properties": {"norad_id": 67142, "name": "KUIPER-00188", "group": "last-30-days", "lat": 45.145469316129194, "lon": -169.0705212529621, "alt_km": 450.1815458933479, "timestamp": "2025-12-25T14:48:23.573448+00:00", "meta": {"OBJECT_NAME": "KUIPER-00188", "OBJECT_ID": "2025-301K", "EPOCH": "2025-12-25T06:00:04.000320", "MEAN_MOTION": 15.34882474, "ECCENTRICITY": 0.00075221, "INCLINATION": 51.8691, "RA_OF_ASC_NODE": 64.8389, "ARG_OF_PERICENTER": 132.6144, "MEAN_ANOMALY": 114.4203, "EPHEMERIS_TYPE": 0, "CLASSIFICATION_TYPE": "U", "NORAD_CAT_ID": 67142, "ELEMENT_SET_NO": 999, "REV_AT_EPOCH": 130, "BSTAR": 0.00065214808, "MEAN_MOTION_DOT": 0.00022098, "MEAN_MOTION_DDOT": 0}, "tle": {"line1": "1 67142U 25301K   25359.25004630  .00022098  00000+0  65215-3 0  9997", "line2": "2 67142  51.8691  64.8389 0007522 132.6144 114.4203 15.34882474  1302"}}, "geometry": {"type": "Point", "coordinates": [-169.0705212529621, 45.145469316129194]}}, {"type": "Feature", "properties": {"norad_id": 67143, "name": "KUIPER-00191", "group": "last-30-days", "lat": 40.95065075911237, "lon": -159.92205463797524, "alt_km": 450.3786226811135, "timestamp": "2025-12-25T14:48:23.573457+00:00", "meta": {"OBJECT_NAME": "KUIPER-00191", "OBJECT_ID": "2025-301L", "EPOCH": "2025-12-25T06:00:04.000320", "MEAN_MOTION": 15.35112891, "ECCENTRICITY": 0.00068429, "INCLINATION": 51.867, "RA_OF_ASC_NODE": 64.8245, "ARG_OF_PERICENTER": 129.7793, "MEAN_ANOMALY": 124.8171, "EPHEMERIS_TYPE": 0, "CLASSIFICATION_TYPE": "U", "NORAD_CAT_ID": 67143, "ELEMENT_SET_NO": 999, "REV_AT_EPOCH": 231, "BSTAR": 0.00063853924, "MEAN_MOTION_DOT": 0.00021786, "MEAN_MOTION_DDOT": 0}, "tle": {"line1": "1 67143U 25301L   25359.25004630  .00021786  00000+0  63854-3 0  9998", "line2": "2 67143  51.8670  64.8245 0006842 129.7793 124.8171 15.35112891  2313"}}, "geometry": {"type": "Point", "coordinates": [-159.92205463797524, 40.95065075911237]}}, {"type": "Feature", "properties": {"norad_id": 67144, "name": "KUIPER-00196", "group": "last-30-days", "lat": 20.42962794214158, "lon": -134.02179126805913, "alt_km": 454.00522094526605, "timestamp": "2025-12-25T14:48:23.573465+00:00", "meta": {"OBJECT_NAME": "KUIPER-00196", "OBJECT_ID": "2025-301M", "EPOCH": "2025-12-25T06:00:04.000320", "MEAN_MOTION": 15.35970184, "ECCENTRICITY": 0.00039526, "INCLINATION": 51.8729, "RA_OF_ASC_NODE": 64.7604, "ARG_OF_PERICENTER": 102.4772, "MEAN_ANOMALY": 181.0126, "EPHEMERIS_TYPE": 0, "CLASSIFICATION_TYPE": "U", "NORAD_CAT_ID": 67144, "ELEMENT_SET_NO": 999, "REV_AT_EPOCH": 201, "BSTAR": 0.00064662234, "MEAN_MOTION_DOT": 0.00022681, "MEAN_MOTION_DDOT": 0}, "tle": {"line1": "1 67144U 25301M   25359.25004630  .00022681  00000+0  64662-3 0  9992", "line2": "2 67144  51.8729  64.7604 0003952 102.4772 181.0126 15.35970184  2010"}}, "geometry": {"type": "Point", "coordinates": [-134.02179126805913, 20.42962794214158]}}, {"type": "Feature", "properties": {"norad_id": 67145, "name": "KUIPER-00204", "group": "last-30-days", "lat": 7.149822840956481, "lon": -122.7069193935247, "alt_km": 456.1204982137706, "timestamp": "2025-12-25T14:48:23.573474+00:00", "meta": {"OBJECT_NAME": "KUIPER-00204", "OBJECT_ID": "2025-301N", "EPOCH": "2025-12-25T06:00:04.000320", "MEAN_MOTION": 15.36515045, "ECCENTRICITY": 0.00020951, "INCLINATION": 51.8743, "RA_OF_ASC_NODE": 64.7194, "ARG_OF_PERICENTER": 80.8495, "MEAN_ANOMALY": 219.1628, "EPHEMERIS_TYPE": 0, "CLASSIFICATION_TYPE": "U", "NORAD_CAT_ID": 67145, "ELEMENT_SET_NO": 999, "REV_AT_EPOCH": 239, "BSTAR": 0.0006452435, "MEAN_MOTION_DOT": 0.00023035, "MEAN_MOTION_DDOT": 0}, "tle": {"line1": "1 67145U 25301N   25359.25004630  .00023035  00000+0  64524-3 0  9994", "line2": "2 67145  51.8743  64.7194 0002095  80.8495 219.1628 15.36515045  2392"}}, "geometry": {"type": "Point", "coordinates": [-122.7069193935247, 7.149822840956481]}}, {"type": "Feature", "properties": {"norad_id": 67146, "name": "KUIPER-00210", "group": "last-30-days", "lat": 51.835589781093525, "lon": 152.0968823524075, "alt_km": 452.6224378722818, "timestamp": "2025-12-25T14:48:23.573483+00:00", "meta": {"OBJECT_NAME": "KUIPER-00210", "OBJECT_ID": "2025-301P", "EPOCH": "2025-12-25T06:00:04.000320", "MEAN_MOTION": 15.34128865, "ECCENTRICITY": 0.00107414, "INCLINATION": 51.8597, "RA_OF_ASC_NODE": 64.8907, "ARG_OF_PERICENTER": 147.5545, "MEAN_ANOMALY": 74.3123, "EPHEMERIS_TYPE": 0, "CLASSIFICATION_TYPE": "U", "NORAD_CAT_ID": 67146, "ELEMENT_SET_NO": 999, "REV_AT_EPOCH": 245, "BSTAR": 0.00060275365, "MEAN_MOTION_DOT": 0.00019917, "MEAN_MOTION_DDOT": 0}, "tle": {"line1": "1 67146U 25301P   25359.25004630  .00019917  00000+0  60275-3 0  9998", "line2": "2 67146  51.8597  64.8907 0010741 147.5545  74.3123 15.34128865  2453"}}, "geometry": {"type": "Point", "coordinates": [152.0968823524075, 51.835589781093525]}}, {"type": "Feature", "properties": {"norad_id": 67147, "name": "KUIPER-00221", "group": "last-30-days", "lat": 28.34525778777355, "lon": -142.05667327240334, "alt_km": 452.18715815407086, "timestamp": "2025-12-25T14:48:23.573492+00:00", "meta": {"OBJECT_NAME": "KUIPER-00221", "OBJECT_ID": "2025-301Q", "EPOCH": "2025-12-25T06:00:04.000320", "MEAN_MOTION": 15.35694805, "ECCENTRICITY": 0.0005239, "INCLINATION": 51.8716, "RA_OF_ASC_NODE": 64.7837, "ARG_OF_PERICENTER": 111.611, "MEAN_ANOMALY": 161.4701, "EPHEMERIS_TYPE": 0, "CLASSIFICATION_TYPE": "U", "NORAD_CAT_ID": 67147, "ELEMENT_SET_NO": 999, "REV_AT_EPOCH": 177, "BSTAR": 0.00066218911, "MEAN_MOTION_DOT": 0.00023034, "MEAN_MOTION_DDOT": 0}, "tle": {"line1": "1 67147U 25301Q   25359.25004630  .00023034  00000+0  66219-3 0  9998", "line2": "2 67147  51.8716  64.7837 0005239 111.6110 161.4701 15.35694805  1771"}}, "geometry": {"type": "Point", "coordinates": [-142.05667327240334, 28.34525778777355]}}, {"type": "Feature", "properties": {"norad_id": 67148, "name": "KUIPER-00232", "group": "last-30-days", "lat": 2.5439004388052657, "lon": -119.06068204789133, "alt_km": 456.8126213714768, "timestamp": "2025-12-25T14:48:23.573504+00:00", "meta": {"OBJECT_NAME": "KUIPER-00232", "OBJECT_ID": "2025-301R", "EPOCH": "2025-12-25T06:00:04.000320", "MEAN_MOTION": 15.36675501, "ECCENTRICITY": 0.00015589, "INCLINATION": 51.8742, "RA_OF_ASC_NODE": 64.7119, "ARG_OF_PERICENTER": 57.916, "MEAN_ANOMALY": 247.7611, "EPHEMERIS_TYPE": 0, "CLASSIFICATION_TYPE": "U", "NORAD_CAT_ID": 67148, "ELEMENT_SET_NO": 999, "REV_AT_EPOCH": 216, "BSTAR": 0.00063300899, "MEAN_MOTION_DOT": 0.00022708, "MEAN_MOTION_DDOT": 0}, "tle": {"line1": "1 67148U 25301R   25359.25004630  .00022708  00000+0  63301-3 0  9995", "line2": "2 67148  51.8742  64.7119 0001558  57.9160 247.7611 15.36675501  2166"}}, "geometry": {"type": "Point", "coordinates": [-119.06068204789133, 2.5439004388052657]}}, {"type": "Feature", "properties": {"norad_id": 67149, "name": "KUIPER-00241", "group": "last-30-days", "lat": 15.04576694185921, "lon": -129.21707890405187, "alt_km": 454.86068186271405, "timestamp": "2025-12-25T14:48:23.573513+00:00", "meta": {"OBJECT_NAME": "KUIPER-00241", "OBJECT_ID": "2025-301S", "EPOCH": "2025-12-25T06:00:04.000320", "MEAN_MOTION": 15.36209293, "ECCENTRICITY": 0.00029605, "INCLINATION": 51.874, "RA_OF_ASC_NODE": 64.7424, "ARG_OF_PERICENTER": 99.8157, "MEAN_ANOMALY": 190.4344, "EPHEMERIS_TYPE": 0, "CLASSIFICATION_TYPE": "U", "NORAD_CAT_ID": 67149, "ELEMENT_SET_NO": 999, "REV_AT_EPOCH": 261, "BSTAR": 0.00060821873, "MEAN_MOTION_DOT": 0.00021472, "MEAN_MOTION_DDOT": 0}, "tle": {"line1": "1 67149U 25301S   25359.25004630  .00021472  00000+0  60822-3 0  9998", "line2": "2 67149  51.8740  64.7424 0002960  99.8157 190.4344 15.36209293  2611"}}, "geometry": {"type": "Point", "coordinates": [-129.21707890405187, 15.04576694185921]}}, {"type": "Feature", "properties": {"norad_id": 67150, "name": "KUIPER-00245", "group": "last-30-days", "lat": 30.539359381368644, "lon": -144.58710427783058, "alt_km": 451.8228168941614, "timestamp": "2025-12-25T14:48:23.573523+00:00", "meta": {"OBJECT_NAME": "KUIPER-00245", "OBJECT_ID": "2025-301T", "EPOCH": "2025-12-25T06:00:04.000320", "MEAN_MOTION": 15.35600111, "ECCENTRICITY": 0.00052455, "INCLINATION": 51.8723, "RA_OF_ASC_NODE": 64.7887, "ARG_OF_PERICENTER": 119.5883, "MEAN_ANOMALY": 150.519, "EPHEMERIS_TYPE": 0, "CLASSIFICATION_TYPE": "U", "NORAD_CAT_ID": 67150, "ELEMENT_SET_NO": 999, "REV_AT_EPOCH": 177, "BSTAR": 0.00068891909, "MEAN_MOTION_DOT": 0.00023909, "MEAN_MOTION_DDOT": 0}, "tle": {"line1": "1 67150U 25301T   25359.25004630  .00023909  00000+0  68892-3 0  9992", "line2": "2 67150  51.8723  64.7887 0005245 119.5883 150.5190 15.35600111  1777"}}, "geometry": {"type": "Point", "coordinates": [-144.58710427783058, 30.539359381368644]}}]}